GLOBALSTAR M075         
1 37192U 10054E   25115.89174122 -.00000077  00000+0  15098-3 0  9990
2 37192  51.9964 340.7649 0000699  86.8279 286.7719 12.62263941669248
GLOBALSTAR M073         
1 37193U 10054F   25116.16421801 -.00000102  00000+0  10996-4 0  9993
2 37193  52.0054 253.7148 0000691 129.3808  41.6556 12.62270853671319
GLOBALSTAR M083         
1 37739U 11033A   25115.70076142 -.00000087  00000+0  92693-4 0  9996
2 37739  51.9848 203.9282 0000621 125.3200  39.2883 12.62263286640229
GLOBALSTAR M088         
1 37740U 11033B   25115.96003517 -.00000084  00000+0  11128-3 0  9992
2 37740  51.9715 108.6701 0000310  75.8596 308.5486 12.62265839635808
GLOBALSTAR M091         
1 37741U 11033C   25116.23608370 -.00000106  00000+0 -12767-4 0  9999
2 37741  52.0002  71.2920 0000678  78.8220  59.7843 12.62267295636881
GLOBALSTAR M085         
1 37742U 11033D   25115.72243140 -.00000084  00000+0  11167-3 0  9999
2 37742  51.9891  23.9415 0000838  84.6834 298.8935 12.62267708637072
GLOBALSTAR M081         
1 37743U 11033E   25115.67080588 -.00000094  00000+0  52871-4 0  9998
2 37743  51.9988  26.8536 0000698  91.4695 297.0091 12.62262949637213
GLOBALSTAR M089         
1 37744U 11033F   25115.94439568 -.00000061  00000+0  23959-3 0  9993
2 37744  51.9954 340.2602 0000558  86.3860 286.7056 12.62269297638092
